CCSDS_OMM_VERS = 2.0
CREATION_DATE  = 
ORIGINATOR     = 

OBJECT_NAME    = ECHOSTAR 25
OBJECT_ID      = 2026-045A
CENTER_NAME    = EARTH
REF_FRAME      = TEME
TIME_SYSTEM    = UTC
MEAN_ELEMENT_THEORY = SGP/SGP4

EPOCH          = 2026-03-24T04:04:02.572608
MEAN_MOTION    = 1.00483764
ECCENTRICITY   = .000144
INCLINATION    = 0.0650
RA_OF_ASC_NODE = 279.6337
ARG_OF_PERICENTER = 192.0161
MEAN_ANOMALY   = 1.6972

EPHEMERIS_TYPE = 0
CLASSIFICATION_TYPE = U
NORAD_CAT_ID   = 68126
ELEMENT_SET_NO = 999
REV_AT_EPOCH   = 14
BSTAR          = 0
MEAN_MOTION_DOT = .27E-6
MEAN_MOTION_DDOT = 0

CCSDS_OMM_VERS = 2.0
CREATION_DATE  = 
ORIGINATOR     = 

OBJECT_NAME    = ICOR SV
OBJECT_ID      = 2026-046A
CENTER_NAME    = EARTH
REF_FRAME      = TEME
TIME_SYSTEM    = UTC
MEAN_ELEMENT_THEORY = SGP/SGP4

EPOCH          = 2026-03-25T13:31:38.239392
MEAN_MOTION    = 15.91313765
ECCENTRICITY   = .0112575
INCLINATION    = 123.0770
RA_OF_ASC_NODE = 277.7896
ARG_OF_PERICENTER = 213.6613
MEAN_ANOMALY   = 145.7271

EPHEMERIS_TYPE = 0
CLASSIFICATION_TYPE = U
NORAD_CAT_ID   = 68127
ELEMENT_SET_NO = 999
REV_AT_EPOCH   = 212
BSTAR          = .65853E-3
MEAN_MOTION_DOT = .391134E-2
MEAN_MOTION_DDOT = .69729E-4

CCSDS_OMM_VERS = 2.0
CREATION_DATE  = 
ORIGINATOR     = 

OBJECT_NAME    = FIREFLY ALPHA R/B
OBJECT_ID      = 2026-046B
CENTER_NAME    = EARTH
REF_FRAME      = TEME
TIME_SYSTEM    = UTC
MEAN_ELEMENT_THEORY = SGP/SGP4

EPOCH          = 2026-03-25T18:10:15.606912
MEAN_MOTION    = 15.56983160
ECCENTRICITY   = .00155952
INCLINATION    = 123.0943
RA_OF_ASC_NODE = 275.9429
ARG_OF_PERICENTER = 12.4647
MEAN_ANOMALY   = 347.6797

EPHEMERIS_TYPE = 0
CLASSIFICATION_TYPE = U
NORAD_CAT_ID   = 68128
ELEMENT_SET_NO = 999
REV_AT_EPOCH   = 214
BSTAR          = .5293008E-3
MEAN_MOTION_DOT = .3873E-3
MEAN_MOTION_DDOT = 0

CCSDS_OMM_VERS = 2.0
CREATION_DATE  = 
ORIGINATOR     = 

OBJECT_NAME    = GUOWANG GROUP 20 OBJECT A
OBJECT_ID      = 2026-047A
CENTER_NAME    = EARTH
REF_FRAME      = TEME
TIME_SYSTEM    = UTC
MEAN_ELEMENT_THEORY = SGP/SGP4

EPOCH          = 2026-03-24T11:18:42.584544
MEAN_MOTION    = 14.00120126
ECCENTRICITY   = .0000455
INCLINATION    = 50.0057
RA_OF_ASC_NODE = 10.2567
ARG_OF_PERICENTER = 280.6416
MEAN_ANOMALY   = 79.4436

EPHEMERIS_TYPE = 0
CLASSIFICATION_TYPE = U
NORAD_CAT_ID   = 68129
ELEMENT_SET_NO = 999
REV_AT_EPOCH   = 164
BSTAR          = .25604904E-4
MEAN_MOTION_DOT = -.112E-5
MEAN_MOTION_DDOT = 0

CCSDS_OMM_VERS = 2.0
CREATION_DATE  = 
ORIGINATOR     = 

OBJECT_NAME    = GUOWANG GROUP 20 OBJECT B
OBJECT_ID      = 2026-047B
CENTER_NAME    = EARTH
REF_FRAME      = TEME
TIME_SYSTEM    = UTC
MEAN_ELEMENT_THEORY = SGP/SGP4

EPOCH          = 2026-03-24T11:16:10.999200
MEAN_MOTION    = 14.00458019
ECCENTRICITY   = .00002294
INCLINATION    = 50.0060
RA_OF_ASC_NODE = 10.2480
ARG_OF_PERICENTER = 293.0264
MEAN_ANOMALY   = 67.0614

EPHEMERIS_TYPE = 0
CLASSIFICATION_TYPE = U
NORAD_CAT_ID   = 68130
ELEMENT_SET_NO = 999
REV_AT_EPOCH   = 163
BSTAR          = .49171838E-4
MEAN_MOTION_DOT = -.77E-6
MEAN_MOTION_DDOT = 0

CCSDS_OMM_VERS = 2.0
CREATION_DATE  = 
ORIGINATOR     = 

OBJECT_NAME    = GUOWANG GROUP 20 OBJECT C
OBJECT_ID      = 2026-047C
CENTER_NAME    = EARTH
REF_FRAME      = TEME
TIME_SYSTEM    = UTC
MEAN_ELEMENT_THEORY = SGP/SGP4

EPOCH          = 2026-03-23T21:32:20.729760
MEAN_MOTION    = 14.00819949
ECCENTRICITY   = .0001695
INCLINATION    = 50.0005
RA_OF_ASC_NODE = 12.5340
ARG_OF_PERICENTER = 156.1490
MEAN_ANOMALY   = 203.9492

EPHEMERIS_TYPE = 0
CLASSIFICATION_TYPE = U
NORAD_CAT_ID   = 68131
ELEMENT_SET_NO = 999
REV_AT_EPOCH   = 156
BSTAR          = .22265347E-4
MEAN_MOTION_DOT = -.117E-5
MEAN_MOTION_DDOT = 0

CCSDS_OMM_VERS = 2.0
CREATION_DATE  = 
ORIGINATOR     = 

OBJECT_NAME    = GUOWANG GROUP 20 OBJECT D
OBJECT_ID      = 2026-047D
CENTER_NAME    = EARTH
REF_FRAME      = TEME
TIME_SYSTEM    = UTC
MEAN_ELEMENT_THEORY = SGP/SGP4

EPOCH          = 2026-03-24T14:35:39.447744
MEAN_MOTION    = 14.01110084
ECCENTRICITY   = .00002212
INCLINATION    = 50.0037
RA_OF_ASC_NODE = 9.6473
ARG_OF_PERICENTER = 23.0477
MEAN_ANOMALY   = 337.0436

EPHEMERIS_TYPE = 0
CLASSIFICATION_TYPE = U
NORAD_CAT_ID   = 68132
ELEMENT_SET_NO = 999
REV_AT_EPOCH   = 165
BSTAR          = .30364787E-4
MEAN_MOTION_DOT = -.105E-5
MEAN_MOTION_DDOT = 0

CCSDS_OMM_VERS = 2.0
CREATION_DATE  = 
ORIGINATOR     = 

OBJECT_NAME    = GUOWANG GROUP 20 OBJECT E
OBJECT_ID      = 2026-047E
CENTER_NAME    = EARTH
REF_FRAME      = TEME
TIME_SYSTEM    = UTC
MEAN_ELEMENT_THEORY = SGP/SGP4

EPOCH          = 2026-03-22T07:51:30.148128
MEAN_MOTION    = 14.03282701
ECCENTRICITY   = .00018453
INCLINATION    = 50.0037
RA_OF_ASC_NODE = 18.9087
ARG_OF_PERICENTER = 286.6306
MEAN_ANOMALY   = 73.4395

EPHEMERIS_TYPE = 0
CLASSIFICATION_TYPE = U
NORAD_CAT_ID   = 68133
ELEMENT_SET_NO = 999
REV_AT_EPOCH   = 134
BSTAR          = .21599298E-4
MEAN_MOTION_DOT = -.117E-5
MEAN_MOTION_DDOT = 0

CCSDS_OMM_VERS = 2.0
CREATION_DATE  = 
ORIGINATOR     = 

OBJECT_NAME    = GUOWANG GROUP 20 OBJECT F
OBJECT_ID      = 2026-047F
CENTER_NAME    = EARTH
REF_FRAME      = TEME
TIME_SYSTEM    = UTC
MEAN_ELEMENT_THEORY = SGP/SGP4

EPOCH          = 2026-03-22T12:56:16.652832
MEAN_MOTION    = 14.03853988
ECCENTRICITY   = .00015499
INCLINATION    = 50.0098
RA_OF_ASC_NODE = 18.0376
ARG_OF_PERICENTER = 290.5042
MEAN_ANOMALY   = 69.5697

EPHEMERIS_TYPE = 0
CLASSIFICATION_TYPE = U
NORAD_CAT_ID   = 68134
ELEMENT_SET_NO = 999
REV_AT_EPOCH   = 136
BSTAR          = .80291987E-4
MEAN_MOTION_DOT = -.24E-6
MEAN_MOTION_DDOT = 0

CCSDS_OMM_VERS = 2.0
CREATION_DATE  = 
ORIGINATOR     = 

OBJECT_NAME    = GUOWANG GROUP 20 OBJECT G
OBJECT_ID      = 2026-047G
CENTER_NAME    = EARTH
REF_FRAME      = TEME
TIME_SYSTEM    = UTC
MEAN_ELEMENT_THEORY = SGP/SGP4

EPOCH          = 2026-03-22T14:39:59.859936
MEAN_MOTION    = 14.03554926
ECCENTRICITY   = .00023781
INCLINATION    = 50.0130
RA_OF_ASC_NODE = 17.7516
ARG_OF_PERICENTER = 303.3923
MEAN_ANOMALY   = 56.6754

EPHEMERIS_TYPE = 0
CLASSIFICATION_TYPE = U
NORAD_CAT_ID   = 68135
ELEMENT_SET_NO = 999
REV_AT_EPOCH   = 138
BSTAR          = .11610707E-3
MEAN_MOTION_DOT = .32E-6
MEAN_MOTION_DDOT = 0

CCSDS_OMM_VERS = 2.0
CREATION_DATE  = 
ORIGINATOR     = 

OBJECT_NAME    = GUOWANG GROUP 20 OBJECT H
OBJECT_ID      = 2026-047H
CENTER_NAME    = EARTH
REF_FRAME      = TEME
TIME_SYSTEM    = UTC
MEAN_ELEMENT_THEORY = SGP/SGP4

EPOCH          = 2026-03-23T21:23:31.171200
MEAN_MOTION    = 14.02326786
ECCENTRICITY   = .0001735
INCLINATION    = 50.0075
RA_OF_ASC_NODE = 12.5331
ARG_OF_PERICENTER = 306.0179
MEAN_ANOMALY   = 54.0564

EPHEMERIS_TYPE = 0
CLASSIFICATION_TYPE = U
NORAD_CAT_ID   = 68136
ELEMENT_SET_NO = 999
REV_AT_EPOCH   = 155
BSTAR          = .31573E-4
MEAN_MOTION_DOT = -.102E-5
MEAN_MOTION_DDOT = 0

CCSDS_OMM_VERS = 2.0
CREATION_DATE  = 
ORIGINATOR     = 

OBJECT_NAME    = GUOWANG GROUP 20 OBJECT J
OBJECT_ID      = 2026-047J
CENTER_NAME    = EARTH
REF_FRAME      = TEME
TIME_SYSTEM    = UTC
MEAN_ELEMENT_THEORY = SGP/SGP4

EPOCH          = 2026-03-23T21:21:21.697344
MEAN_MOTION    = 14.02259904
ECCENTRICITY   = .0000175
INCLINATION    = 50.0081
RA_OF_ASC_NODE = 12.5219
ARG_OF_PERICENTER = 124.6965
MEAN_ANOMALY   = 235.3956

EPHEMERIS_TYPE = 0
CLASSIFICATION_TYPE = U
NORAD_CAT_ID   = 68137
ELEMENT_SET_NO = 999
REV_AT_EPOCH   = 156
BSTAR          = .91454E-5
MEAN_MOTION_DOT = -.137E-5
MEAN_MOTION_DDOT = 0

